start=new Date('2022-12-11T00:00:00.000Z').valueOf();
sats=[{"ECCENTRICITY":"0.00009300","ARG_OF_PERICENTER":"79.5291","TLE_LINE1":"1 53439U 22097BD  22344.41801084 -.00000197  00000-0  57233-5 0  9998","PERIOD":"95.437","PERIAPSIS":"539.082","MEAN_ANOMALY":"280.5806","REV_AT_EPOCH":"1986","MEAN_ELEMENT_THEORY":"SGP4","MEAN_MOTION_DOT":"-0.00000197","FILE":"3688140","NORAD_CAT_ID":"53439","TIME_SYSTEM":"UTC","SEMIMAJOR_AXIS":"6917.861","LAUNCH_DATE":"2022-08-10","REF_FRAME":"TEME","RA_OF_ASC_NODE":"24.6217","MEAN_MOTION":"15.08846451","CLASSIFICATION_TYPE":"U","BSTAR":"0.00000572330000","GP_ID":"219935959","DECAY_DATE":null,"INCLINATION":"53.2206","EPHEMERIS_TYPE":"0","CENTER_NAME":"EARTH","RCS_SIZE":"LARGE","OBJECT_TYPE":"PAYLOAD","COUNTRY_CODE":"US","EPOCH":"2022-12-10T10:01:56.136576","ELEMENT_SET_NO":"999","APOAPSIS":"540.369","MEAN_MOTION_DDOT":"0.0000000000000","TLE_LINE2":"2 53439  53.2206  24.6217 0000930  79.5291 280.5806 15.08846451 19866","SITE":"AFETR","OBJECT_NAME":"STARLINK-4519","OBJECT_ID":"2022-097BD"},{"PERIOD":"95.918","TLE_LINE1":"1 53465U 22099A   22344.84846837  .00022860  00000-0  17777-2 0  9997","ARG_OF_PERICENTER":"5.2549","ECCENTRICITY":"0.00010790","FILE":"3688864","MEAN_MOTION_DOT":"0.00022860","NORAD_CAT_ID":"53465","MEAN_ELEMENT_THEORY":"SGP4","REV_AT_EPOCH":"1846","PERIAPSIS":"562.201","MEAN_ANOMALY":"354.8686","MEAN_MOTION":"15.01280150","RA_OF_ASC_NODE":"103.6201","REF_FRAME":"TEME","LAUNCH_DATE":"2022-08-12","SEMIMAJOR_AXIS":"6941.085","TIME_SYSTEM":"UTC","INCLINATION":"97.6494","DECAY_DATE":null,"GP_ID":"219952010","CLASSIFICATION_TYPE":"U","BSTAR":"0.00177770000000","CENTER_NAME":"EARTH","EPHEMERIS_TYPE":"0","OBJECT_TYPE":"PAYLOAD","RCS_SIZE":"LARGE","MEAN_MOTION_DDOT":"0.0000000000000","APOAPSIS":"563.699","ELEMENT_SET_NO":"999","EPOCH":"2022-12-10T20:21:47.667168","COUNTRY_CODE":"US","OBJECT_ID":"2022-099A","SITE":"AFWTR","OBJECT_NAME":"STARLINK-4415","TLE_LINE2":"2 53465  97.6494 103.6201 0001079   5.2549 354.8686 15.01280150 18461"},{"TLE_LINE2":"2 53466  97.6522 103.5499 0001024 270.8072  89.3035 15.01257121 18205","OBJECT_ID":"2022-099B","SITE":"AFWTR","OBJECT_NAME":"STARLINK-4398","EPOCH":"2022-12-10T18:43:08.336640","COUNTRY_CODE":"US","MEAN_MOTION_DDOT":"0.0000000000000","APOAPSIS":"563.731","ELEMENT_SET_NO":"999","RCS_SIZE":"LARGE","OBJECT_TYPE":"PAYLOAD","EPHEMERIS_TYPE":"0","CENTER_NAME":"EARTH","INCLINATION":"97.6522","DECAY_DATE":null,"GP_ID":"219980190","CLASSIFICATION_TYPE":"U","BSTAR":"0.00116290000000","LAUNCH_DATE":"2022-08-12","SEMIMAJOR_AXIS":"6941.156","TIME_SYSTEM":"UTC","RA_OF_ASC_NODE":"103.5499","MEAN_MOTION":"15.01257121","REF_FRAME":"TEME","REV_AT_EPOCH":"1820","MEAN_ANOMALY":"89.3035","PERIAPSIS":"562.310","FILE":"3688965","MEAN_MOTION_DOT":"0.00014908","NORAD_CAT_ID":"53466","MEAN_ELEMENT_THEORY":"SGP4","ECCENTRICITY":"0.00010240","PERIOD":"95.920","TLE_LINE1":"1 53466U 22099B   22344.77995760  .00014908  00000-0  11629-2 0  9994","ARG_OF_PERICENTER":"270.8072"},{"TLE_LINE2":"2 53467  97.6515 103.5442 0000897 251.4676 108.6450 15.01252544 18208","OBJECT_ID":"2022-099C","SITE":"AFWTR","OBJECT_NAME":"STARLINK-4394","EPOCH":"2022-12-10T18:40:28.608096","COUNTRY_CODE":"US","MEAN_MOTION_DDOT":"0.0000000000000","APOAPSIS":"563.657","ELEMENT_SET_NO":"999","RCS_SIZE":"LARGE","OBJECT_TYPE":"PAYLOAD","EPHEMERIS_TYPE":"0","CENTER_NAME":"EARTH","INCLINATION":"97.6515","DECAY_DATE":null,"GP_ID":"219979387","BSTAR":"0.00042149000000","CLASSIFICATION_TYPE":"U","LAUNCH_DATE":"2022-08-12","SEMIMAJOR_AXIS":"6941.170","TIME_SYSTEM":"UTC","RA_OF_ASC_NODE":"103.5442","MEAN_MOTION":"15.01252544","REF_FRAME":"TEME","REV_AT_EPOCH":"1820","PERIAPSIS":"562.412","MEAN_ANOMALY":"108.6450","FILE":"3688965","MEAN_MOTION_DOT":"0.00005358","NORAD_CAT_ID":"53467","MEAN_ELEMENT_THEORY":"SGP4","ECCENTRICITY":"0.00008970","TLE_LINE1":"1 53467U 22099C   22344.77810889  .00005358  00000-0  42149-3 0  9994","PERIOD":"95.920","ARG_OF_PERICENTER":"251.4676"},{"OBJECT_NAME":"STARLINK-4400","SITE":"AFWTR","OBJECT_ID":"2022-099D","TLE_LINE2":"2 53468  97.6535 103.5380 0001006 188.2211 171.8997 15.01241573 18205","ELEMENT_SET_NO":"999","APOAPSIS":"563.767","MEAN_MOTION_DDOT":"0.0000000000000","COUNTRY_CODE":"US","EPOCH":"2022-12-10T18:37:50.185920","OBJECT_TYPE":"PAYLOAD","RCS_SIZE":"LARGE","CENTER_NAME":"EARTH","EPHEMERIS_TYPE":"0","BSTAR":"0.00128310000000","CLASSIFICATION_TYPE":"U","GP_ID":"219980000","DECAY_DATE":null,"INCLINATION":"97.6535","REF_FRAME":"TEME","RA_OF_ASC_NODE":"103.5380","MEAN_MOTION":"15.01241573","TIME_SYSTEM":"UTC","SEMIMAJOR_AXIS":"6941.204","LAUNCH_DATE":"2022-08-12","MEAN_ELEMENT_THEORY":"SGP4","FILE":"3688965","MEAN_MOTION_DOT":"0.00016452","NORAD_CAT_ID":"53468","MEAN_ANOMALY":"171.8997","PERIAPSIS":"562.370","REV_AT_EPOCH":"1820","ARG_OF_PERICENTER":"188.2211","PERIOD":"95.921","TLE_LINE1":"1 53468U 22099D   22344.77627530  .00016452  00000-0  12831-2 0  9995","ECCENTRICITY":"0.00010060"},{"ARG_OF_PERICENTER":"204.0559","TLE_LINE1":"1 53469U 22099E   22344.90771151  .00005585  00000-0  43877-3 0  9990","PERIOD":"95.918","ECCENTRICITY":"0.00011120","MEAN_ELEMENT_THEORY":"SGP4","MEAN_MOTION_DOT":"0.00005585","FILE":"3688864","NORAD_CAT_ID":"53469","MEAN_ANOMALY":"156.0613","PERIAPSIS":"562.166","REV_AT_EPOCH":"1846","REF_FRAME":"TEME","MEAN_MOTION":"15.01284108","RA_OF_ASC_NODE":"103.6633","TIME_SYSTEM":"UTC","SEMIMAJOR_AXIS":"6941.073","LAUNCH_DATE":"2022-08-12","BSTAR":"0.00043877000000","CLASSIFICATION_TYPE":"U","GP_ID":"219952005","DECAY_DATE":null,"INCLINATION":"97.6529","CENTER_NAME":"EARTH","EPHEMERIS_TYPE":"0","OBJECT_TYPE":"PAYLOAD","RCS_SIZE":"LARGE","ELEMENT_SET_NO":"999","APOAPSIS":"563.709","MEAN_MOTION_DDOT":"0.0000000000000","COUNTRY_CODE":"US","EPOCH":"2022-12-10T21:47:06.274464","OBJECT_NAME":"STARLINK-4399","SITE":"AFWTR","OBJECT_ID":"2022-099E","TLE_LINE2":"2 53469  97.6529 103.6633 0001112 204.0559 156.0613 15.01284108 18460"},{"REF_FRAME":"TEME","RA_OF_ASC_NODE":"103.5395","MEAN_MOTION":"15.01282504","SEMIMAJOR_AXIS":"6941.077","LAUNCH_DATE":"2022-08-12","TIME_SYSTEM":"UTC","DECAY_DATE":null,"INCLINATION":"97.6529","CLASSIFICATION_TYPE":"U","BSTAR":"0.00131800000000","GP_ID":"219979796","TLE_LINE1":"1 53470U 22099F   22344.77465912  .00016920  00000-0  13180-2 0  9990","PERIOD":"95.918","ARG_OF_PERICENTER":"222.7457","ECCENTRICITY":"0.00010950","MEAN_ELEMENT_THEORY":"SGP4","NORAD_CAT_ID":"53470","FILE":"3688965","MEAN_MOTION_DOT":"0.00016920","REV_AT_EPOCH":"1820","PERIAPSIS":"562.182","MEAN_ANOMALY":"137.3683","APOAPSIS":"563.703","MEAN_MOTION_DDOT":"0.0000000000000","ELEMENT_SET_NO":"999","EPOCH":"2022-12-10T18:35:30.547968","COUNTRY_CODE":"US","OBJECT_NAME":"STARLINK-4393","SITE":"AFWTR","OBJECT_ID":"2022-099F","TLE_LINE2":"2 53470  97.6529 103.5395 0001095 222.7457 137.3683 15.01282504 18209","CENTER_NAME":"EARTH","EPHEMERIS_TYPE":"0","OBJECT_TYPE":"PAYLOAD","RCS_SIZE":"LARGE"},{"MEAN_ANOMALY":"190.9324","PERIAPSIS":"561.637","REV_AT_EPOCH":"1846","MEAN_MOTION_DOT":"0.00017682","FILE":"3688864","NORAD_CAT_ID":"53471","MEAN_ELEMENT_THEORY":"SGP4","ECCENTRICITY":"0.00019810","ARG_OF_PERICENTER":"169.1943","PERIOD":"95.919","TLE_LINE1":"1 53471U 22099G   22344.90401266  .00017682  00000-0  13778-2 0  9997","GP_ID":"219952011","CLASSIFICATION_TYPE":"U","BSTAR":"0.00137780000000","INCLINATION":"97.6545","DECAY_DATE":null,"TIME_SYSTEM":"UTC","LAUNCH_DATE":"2022-08-12","SEMIMAJOR_AXIS":"6941.147","RA_OF_ASC_NODE":"103.6584","MEAN_MOTION":"15.01259853","REF_FRAME":"TEME","RCS_SIZE":"LARGE","OBJECT_TYPE":"PAYLOAD","EPHEMERIS_TYPE":"0","CENTER_NAME":"EARTH","TLE_LINE2":"2 53471  97.6545 103.6584 0001981 169.1943 190.9324 15.01259853 18463","OBJECT_ID":"2022-099G","OBJECT_NAME":"STARLINK-4316","SITE":"AFWTR","COUNTRY_CODE":"US","EPOCH":"2022-12-10T21:41:46.693824","ELEMENT_SET_NO":"999","MEAN_MOTION_DDOT":"0.0000000000000","APOAPSIS":"564.387"},{"OBJECT_ID":"2022-099H","SITE":"AFWTR","OBJECT_NAME":"STARLINK-4447","TLE_LINE2":"2 53472  97.6540 103.5300 0001261 185.1223 174.9989 15.01253260 18201","MEAN_MOTION_DDOT":"0.0000000000000","APOAPSIS":"563.908","ELEMENT_SET_NO":"999","EPOCH":"2022-12-10T18:32:28.238784","COUNTRY_CODE":"US","OBJECT_TYPE":"PAYLOAD","RCS_SIZE":"LARGE","CENTER_NAME":"EARTH","EPHEMERIS_TYPE":"0","INCLINATION":"97.6540","DECAY_DATE":null,"GP_ID":"219980395","BSTAR":"-0.00016450000000","CLASSIFICATION_TYPE":"U","MEAN_MOTION":"15.01253260","RA_OF_ASC_NODE":"103.5300","REF_FRAME":"TEME","LAUNCH_DATE":"2022-08-12","SEMIMAJOR_AXIS":"6941.168","TIME_SYSTEM":"UTC","MEAN_MOTION_DOT":"-0.00002171","FILE":"3688965","NORAD_CAT_ID":"53472","MEAN_ELEMENT_THEORY":"SGP4","REV_AT_EPOCH":"1820","MEAN_ANOMALY":"174.9989","PERIAPSIS":"562.157","TLE_LINE1":"1 53472U 22099H   22344.77254906 -.00002171  00000-0 -16450-3 0  9990","PERIOD":"95.920","ARG_OF_PERICENTER":"185.1223","ECCENTRICITY":"0.00012610"},{"ECCENTRICITY":"0.00018330","TLE_LINE1":"1 53473U 22099J   22344.83365395  .00001715  00000-0  13802-3 0  9992","PERIOD":"95.919","ARG_OF_PERICENTER":"144.7863","REV_AT_EPOCH":"1821","PERIAPSIS":"561.710","MEAN_ANOMALY":"215.3483","NORAD_CAT_ID":"53473","FILE":"3688965","MEAN_MOTION_DOT":"0.00001715","MEAN_ELEMENT_THEORY":"SGP4","LAUNCH_DATE":"2022-08-12","SEMIMAJOR_AXIS":"6941.117","TIME_SYSTEM":"UTC","MEAN_MOTION":"15.01269636","RA_OF_ASC_NODE":"103.5896","REF_FRAME":"TEME","INCLINATION":"97.6561","DECAY_DATE":null,"GP_ID":"219979591","CLASSIFICATION_TYPE":"U","BSTAR":"0.00013802000000","EPHEMERIS_TYPE":"0","CENTER_NAME":"EARTH","RCS_SIZE":"LARGE","OBJECT_TYPE":"PAYLOAD","EPOCH":"2022-12-10T20:00:27.701280","COUNTRY_CODE":"US","MEAN_MOTION_DDOT":"0.0000000000000","APOAPSIS":"564.254","ELEMENT_SET_NO":"999","TLE_LINE2":"2 53473  97.6561 103.5896 0001833 144.7863 215.3483 15.01269636 18215","OBJECT_ID":"2022-099J","SITE":"AFWTR","OBJECT_NAME":"STARLINK-4383"}];
